     2.100          NAVIGATION                              RINEX VERSION / TYPE
fic2rin                                 12/30/2009 00:59:41 PGM / RUN BY / DATE
                                                            END OF HEADER
 8 09 12 29 11 59 44.0  .150501728058D-05  .454747350886D-12  .000000000000D+00
     .770000000000D+02 -.136937500000D+03  .373658421516D-08 -.774216966410D+00
    -.729970633984D-05  .109773536678D-01  .576674938202D-05  .515373611641D+04
     .215984000000D+06  .124797224998D-06 -.107307892195D+01 -.163912773132D-06
     .991226817993D+00  .280156250000D+03  .307791765055D+01 -.782782606038D-08
    -.835749098019D-10  .100000000000D+01  .156400000000D+04  .000000000000D+00
     .240000000000D+01  .000000000000D+00 -.372529029846D-08  .770000000000D+02
     .210156000000D+06  .400000000000D+01
30 09 12 29 11 59 44.0  .205851625651D-03  .329691829393D-11  .000000000000D+00
     .100000000000D+01 -.751875000000D+02  .436946772015D-08 -.254647246605D+01
    -.384077429771D-05  .119063088205D-01  .112857669592D-04  .515363973618D+04
     .215984000000D+06  .184401869774D-06 -.136097074155D+00  .894069671631D-07
     .954787066165D+00  .156187500000D+03  .146907526447D+01 -.756531512574D-08
     .603239413057D-09  .100000000000D+01  .156400000000D+04  .000000000000D+00
     .240000000000D+01  .000000000000D+00 -.791624188423D-08  .100000000000D+01
     .212196000000D+06  .400000000000D+01
17 09 12 29 11 59 44.0  .116340816021D-03  .352429196937D-11  .000000000000D+00
     .170000000000D+02  .590625000000D+01  .494306304127D-08  .262812143798D+01
     .286847352982D-06  .493302987888D-02  .596418976784D-05  .515375729179D+04
     .215984000000D+06 -.782310962677D-07  .974833486733D+00 -.633299350739D-07
     .959702735700D+00  .264343750000D+03 -.263207196487D+01 -.798961851397D-08
     .199294015681D-09  .100000000000D+01  .156400000000D+04  .000000000000D+00
     .240000000000D+01  .000000000000D+00 -.102445483208D-07  .170000000000D+02
     .214656000000D+06  .400000000000D+01
28 09 12 29 11 59 44.0 -.242558307946D-04  .341060513165D-12  .000000000000D+00
     .110000000000D+02 -.566875000000D+02  .403052503040D-08 -.304017582849D+01
    -.304169952869D-05  .155589620117D-01  .115334987640D-04  .515366432190D+04
     .215984000000D+06  .124797224998D-06 -.597522189312D-01 -.156462192535D-06
     .969130464448D+00  .158656250000D+03 -.199776676609D+01 -.735459206257D-08
     .608239621336D-09  .100000000000D+01  .156400000000D+04  .000000000000D+00
     .240000000000D+01  .000000000000D+00 -.107102096081D-07  .110000000000D+02
     .214956000000D+06  .400000000000D+01
17 09 12 29 13 59 44.0  .116365961730D-03  .352429196937D-11  .000000000000D+00
     .310000000000D+02  .640625000000D+01  .499306512406D-08 -.260492919787D+01
     .361353158951D-06  .493295758497D-02  .591389834881D-05  .515375743103D+04
     .223184000000D+06  .558793544769D-08  .974775508364D+00 -.150874257088D-06
     .959704069881D+00  .264500000000D+03 -.263207349069D+01 -.805247827518D-08
     .251081887140D-09  .100000000000D+01  .156400000000D+04  .000000000000D+00
     .240000000000D+01  .000000000000D+00 -.102445483208D-07  .310000000000D+02
     .216006000000D+06  .400000000000D+01
28 09 12 29 13 59 44.0 -.242535024881D-04  .341060513165D-12  .000000000000D+00
     .410000000000D+02 -.492812500000D+02  .405695470273D-08 -.199006934027D+01
    -.260956585407D-05  .155603524763D-01  .107698142529D-04  .515366093254D+04
     .223184000000D+06  .230967998505D-06 -.598052979879D-01 -.707805156708D-07
     .969135034604D+00  .170156250000D+03 -.199768924167D+01 -.738887920505D-08
     .625383192577D-09  .100000000000D+01  .156400000000D+04  .000000000000D+00
     .240000000000D+01  .000000000000D+00 -.107102096081D-07  .410000000000D+02
     .216006000000D+06  .400000000000D+01
30 09 12 29 13 59 44.0  .205875374377D-03  .329691829393D-11  .000000000000D+00
     .900000000000D+01 -.698437500000D+02  .447197198987D-08 -.149634023194D+01
    -.341609120369D-05  .119066128973D-01  .116433948278D-04  .515363811874D+04
     .223184000000D+06  .540167093277D-07 -.136151463986D+00  .342726707458D-06
     .954790328472D+00  .152281250000D+03  .146914391336D+01 -.778746723641D-08
     .534307970357D-09  .100000000000D+01  .156400000000D+04  .000000000000D+00
     .240000000000D+01  .000000000000D+00 -.791624188423D-08  .900000000000D+01
     .216006000000D+06  .400000000000D+01
 1 09 12 29 14  0  0.0 -.745649449527D-04 -.306954461848D-11  .000000000000D+00
     .220000000000D+02 -.691875000000D+02  .554523098113D-08 -.107736870686D+01
    -.353902578354D-05  .383904005866D-02  .115185976028D-04  .515366155624D+04
     .223200000000D+06  .651925802231D-07 -.984537094036D-01  .111758708954D-06
     .963505500546D+00  .160218750000D+03  .946416597090D+00 -.770389232661D-08
     .563237746827D-09  .100000000000D+01  .156400000000D+04  .000000000000D+00
     .240000000000D+01  .630000000000D+02 -.190921127796D-07  .220000000000D+02
     .216006000000D+06  .400000000000D+01
 2 09 12 29 14  0  0.0  .209331512451D-03  .443378667114D-11  .000000000000D+00
     .230000000000D+02  .440625000000D+01  .505592488528D-08  .259776036532D+01
     .279396772385D-06  .925274565816D-02  .873021781445D-05  .515375234032D+04
     .223200000000D+06 -.121071934700D-06  .198694723903D+01  .180676579475D-06
     .940020116525D+00  .200718750000D+03  .293261438026D+01 -.802247702551D-08
    -.653955811313D-09  .100000000000D+01  .156400000000D+04  .000000000000D+00
     .240000000000D+01  .000000000000D+00 -.172294676304D-07  .230000000000D+02
     .216006000000D+06  .400000000000D+01
 3 09 12 29 14  0  0.0  .494594220072D-03  .522959453519D-11  .000000000000D+00
     .450000000000D+02  .142812500000D+02  .565559272100D-08  .238613288486D+01
     .592321157455D-06  .127478250070D-01  .630691647530D-05  .515367033195D+04
     .223200000000D+06 -.130385160446D-07  .836097615576D+00 -.264495611191D-06
     .926631213772D+00  .238843750000D+03  .974729720491D+00 -.822677124947D-08
     .453947480163D-09  .100000000000D+01  .156400000000D+04  .000000000000D+00
     .240000000000D+01  .000000000000D+00 -.419095158577D-08  .450000000000D+02
     .216006000000D+06  .400000000000D+01
 4 09 12 29 14  0  0.0 -.430880580097D-03 -.188720150618D-10  .000000000000D+00
     .139000000000D+03  .200000000000D+01  .510235539073D-08 -.773968978389D+00
     .165775418282D-06  .912183721084D-02  .829063355923D-05  .515359853363D+04
     .223200000000D+06  .173225998878D-06  .200503129689D+01  .150874257088D-06
     .939202275099D+00  .207625000000D+03  .581252986651D+00 -.820784188956D-08
    -.638955186477D-09  .100000000000D+01  .156400000000D+04  .000000000000D+00
     .340000000000D+01  .000000000000D+00 -.605359673500D-08  .139000000000D+03
     .216006000000D+06  .400000000000D+01
 5 09 12 29 14  0  0.0 -.226236879826D-04  .454747350886D-11  .000000000000D+00
     .440000000000D+02  .131343750000D+03  .423089051929D-08 -.227445323154D+01
     .679306685925D-05  .179934338666D-02  .923499464989D-05  .515362960243D+04
     .223200000000D+06 -.186264514923D-08  .304535514512D+01  .353902578354D-07
     .960666358376D+00  .204281250000D+03  .291077298846D+00 -.781139680460D-08
    -.946467995620D-10  .100000000000D+01  .156400000000D+04  .000000000000D+00
     .240000000000D+01  .000000000000D+00 -.884756445885D-08  .440000000000D+02
     .216006000000D+06  .400000000000D+01
 6 09 12 29 14  0  0.0  .262624584138D-03 -.125055521494D-11  .000000000000D+00
     .350000000000D+02  .175312500000D+02  .559630453712D-08 -.161366659690D+01
     .106729567051D-05  .584816036280D-02  .620074570179D-05  .515365282440D+04
     .223200000000D+06 -.119209289551D-06  .905491580856D+00  .894069671631D-07
     .933969766767D+00  .247750000000D+03 -.117805911414D+01 -.837963475971D-08
     .388944772540D-09  .100000000000D+01  .156400000000D+04  .000000000000D+00
     .240000000000D+01  .000000000000D+00 -.512227416039D-08  .350000000000D+02
     .216006000000D+06  .400000000000D+01
 7 09 12 29 14  0  0.0  .519026070833D-05 -.568434188608D-12  .000000000000D+00
     .640000000000D+02 -.127093750000D+03  .418124559423D-08  .869950236279D+00
    -.663660466671D-05  .323088211007D-02  .457093119621D-05  .515373383904D+04
     .223200000000D+06  .316649675369D-07 -.113797740288D+01  .558793544769D-07
     .969905492114D+00  .295718750000D+03  .306626462006D+01 -.806569311135D-08
    -.163221084528D-09  .100000000000D+01  .156400000000D+04  .000000000000D+00
     .240000000000D+01  .000000000000D+00 -.107102096081D-07  .640000000000D+02
     .216006000000D+06  .400000000000D+01
 8 09 12 29 14  0  0.0  .150874257088D-05  .454747350886D-12  .000000000000D+00
     .790000000000D+02 -.129625000000D+03  .372586948313D-08  .278194669616D+00
    -.682473182678D-05  .109781547217D-01  .537931919098D-05  .515373727989D+04
     .223200000000D+06  .171363353729D-06 -.107313556468D+01  .149011611938D-07
     .991225511607D+00  .291125000000D+03  .307797735077D+01 -.793068748782D-08
    -.146791828755D-09  .100000000000D+01  .156400000000D+04  .000000000000D+00
     .240000000000D+01  .000000000000D+00 -.372529029846D-08  .790000000000D+02
     .216006000000D+06  .400000000000D+01
 9 09 12 29 14  0  0.0  .968431122601D-04  .216004991671D-11  .000000000000D+00
     .640000000000D+02 -.138125000000D+03  .409445626482D-08  .955170066896D-01
    -.735372304916D-05  .206365048653D-01  .528059899807D-05  .515362177467D+04
     .223200000000D+06 -.320374965668D-06 -.117045664633D+01  .745058059692D-08
     .978710952565D+00  .290062500000D+03  .152365849205D+01 -.839213528041D-08
    -.230366738556D-09  .100000000000D+01  .156400000000D+04  .000000000000D+00
     .240000000000D+01  .000000000000D+00 -.558793544769D-08  .640000000000D+02
     .216006000000D+06  .400000000000D+01
